{
    "links": {
        "self": "http://www.neowsapp.com/rest/v1/neo/3727065?api_key=iIulBulltgU6a56xZRHN4H3l9WmuAYTsLGpBGhQ2"
    },
    "id": "3727065",
    "neo_reference_id": "3727065",
    "name": "(2015 RY35)",
    "designation": "2015 RY35",
    "nasa_jpl_url": "http://ssd.jpl.nasa.gov/sbdb.cgi?sstr=3727065",
    "absolute_magnitude_h": 24.7,
    "estimated_diameter": {
        "kilometers": {
            "estimated_diameter_min": 0.0305179233,
            "estimated_diameter_max": 0.0682401509
        },
        "meters": {
            "estimated_diameter_min": 30.5179232594,
            "estimated_diameter_max": 68.2401509401
        },
        "miles": {
            "estimated_diameter_min": 0.0189629525,
            "estimated_diameter_max": 0.0424024508
        },
        "feet": {
            "estimated_diameter_min": 100.1244233463,
            "estimated_diameter_max": 223.8850168104
        }
    },
    "is_potentially_hazardous_asteroid": false,
    "close_approach_data": [
        {
            "close_approach_date": "2015-08-26",
            "close_approach_date_full": "2015-Aug-26 07:54",
            "epoch_date_close_approach": 1440575640000,
            "relative_velocity": {
                "kilometers_per_second": "6.3802003754",
                "kilometers_per_hour": "22968.7213515402",
                "miles_per_hour": "14271.8702197945"
            },
            "miss_distance": {
                "astronomical": "0.1432986338",
                "lunar": "55.7431685482",
                "kilometers": "21437170.390390006",
                "miles": "13320440.0035778428"
            },
            "orbiting_body": "Earth"
        }
    ],
    "orbital_data": {
        "orbit_id": "6",
        "orbit_determination_date": "2017-04-06 08:32:06",
        "first_observation_date": "2015-09-09",
        "last_observation_date": "2015-09-23",
        "data_arc_in_days": 14,
        "observations_used": 21,
        "orbit_uncertainty": "8",
        "minimum_orbit_intersection": ".141704",
        "jupiter_tisserand_invariant": "3.493",
        "epoch_osculation": "2457276.5",
        "eccentricity": ".4803613020798091",
        "semi_major_axis": "2.200251278948713",
        "inclination": "8.626450255141833",
        "ascending_node_longitude": "169.3974943053385",
        "orbital_period": "1192.083975464983",
        "perihelion_distance": "1.143335709690144",
        "perihelion_argument": "158.561319126466",
        "aphelion_distance": "3.257166848207282",
        "perihelion_time": "2457255.060250558262",
        "mean_anomaly": "6.474635980250541",
        "mean_motion": ".3019921477088717",
        "equinox": "J2000",
        "orbit_class": {
            "orbit_class_type": "AMO",
            "orbit_class_description": "Near-Earth asteroid orbits similar to that of 1221 Amor",
            "orbit_class_range": "1.017 AU < q (perihelion) < 1.3 AU"
        }
    },
    "is_sentry_object": false
}